[{"OBJECT_NAME":"STARLINK-30113","OBJECT_ID":"2023-056F","EPOCH":"2026-02-27T06:00:02.000160","MEAN_MOTION":15.09898345,"ECCENTRICITY":0.00018375,"INCLINATION":42.9999,"RA_OF_ASC_NODE":266.6768,"ARG_OF_PERICENTER":327.0503,"MEAN_ANOMALY":163.4676,"EPHEMERIS_TYPE":0,"CLASSIFICATION_TYPE":"U","NORAD_CAT_ID":56291,"ELEMENT_SET_NO":999,"REV_AT_EPOCH":573,"BSTAR":0.0025529084,"MEAN_MOTION_DOT":0.00042114,"MEAN_MOTION_DDOT":0},{"OBJECT_NAME":"STARLINK-30098","OBJECT_ID":"2023-056G","EPOCH":"2026-02-26T15:01:21.616032","MEAN_MOTION":15.02544569,"ECCENTRICITY":0.0001956,"INCLINATION":43.0024,"RA_OF_ASC_NODE":270.0518,"ARG_OF_PERICENTER":266.9339,"MEAN_ANOMALY":93.128,"EPHEMERIS_TYPE":0,"CLASSIFICATION_TYPE":"U","NORAD_CAT_ID":56292,"ELEMENT_SET_NO":999,"REV_AT_EPOCH":15836,"BSTAR":0.00033424,"MEAN_MOTION_DOT":4.315e-5,"MEAN_MOTION_DDOT":0},{"OBJECT_NAME":"STARLINK-30090","OBJECT_ID":"2023-056H","EPOCH":"2026-02-27T06:00:02.000160","MEAN_MOTION":15.09167734,"ECCENTRICITY":0.00013218,"INCLINATION":43,"RA_OF_ASC_NODE":267.33,"ARG_OF_PERICENTER":275.5303,"MEAN_ANOMALY":297.9683,"EPHEMERIS_TYPE":0,"CLASSIFICATION_TYPE":"U","NORAD_CAT_ID":56293,"ELEMENT_SET_NO":999,"REV_AT_EPOCH":563,"BSTAR":0.059874323,"MEAN_MOTION_DOT":0.01044961,"MEAN_MOTION_DDOT":0},{"OBJECT_NAME":"STARLINK-30049","OBJECT_ID":"2023-056J","EPOCH":"2026-02-27T06:00:02.000160","MEAN_MOTION":15.11558335,"ECCENTRICITY":0.00018751,"INCLINATION":42.9996,"RA_OF_ASC_NODE":267.0537,"ARG_OF_PERICENTER":259.8479,"MEAN_ANOMALY":43.4019,"EPHEMERIS_TYPE":0,"CLASSIFICATION_TYPE":"U","NORAD_CAT_ID":56294,"ELEMENT_SET_NO":999,"REV_AT_EPOCH":573,"BSTAR":1.740515e-6,"MEAN_MOTION_DOT":-1.92e-6,"MEAN_MOTION_DDOT":0},{"OBJECT_NAME":"STARLINK-30083","OBJECT_ID":"2023-056K","EPOCH":"2026-02-27T06:00:02.000160","MEAN_MOTION":15.06690283,"ECCENTRICITY":8.271e-5,"INCLINATION":42.9998,"RA_OF_ASC_NODE":241.115,"ARG_OF_PERICENTER":217.5614,"MEAN_ANOMALY":22.1992,"EPHEMERIS_TYPE":0,"CLASSIFICATION_TYPE":"U","NORAD_CAT_ID":56295,"ELEMENT_SET_NO":999,"REV_AT_EPOCH":573,"BSTAR":0.0030108437,"MEAN_MOTION_DOT":0.00045546,"MEAN_MOTION_DDOT":0},{"OBJECT_NAME":"STARLINK-30089","OBJECT_ID":"2023-056L","EPOCH":"2026-02-27T06:00:02.000160","MEAN_MOTION":15.15488965,"ECCENTRICITY":0.0001694,"INCLINATION":42.9996,"RA_OF_ASC_NODE":227.7592,"ARG_OF_PERICENTER":282.7518,"MEAN_ANOMALY":89.7294,"EPHEMERIS_TYPE":0,"CLASSIFICATION_TYPE":"U","NORAD_CAT_ID":56296,"ELEMENT_SET_NO":999,"REV_AT_EPOCH":562,"BSTAR":0.074084218,"MEAN_MOTION_DOT":0.01574983,"MEAN_MOTION_DDOT":0},{"OBJECT_NAME":"STARLINK-30086","OBJECT_ID":"2023-056M","EPOCH":"2026-02-27T06:00:02.000160","MEAN_MOTION":15.07988341,"ECCENTRICITY":0.00017047,"INCLINATION":43.0002,"RA_OF_ASC_NODE":267.0033,"ARG_OF_PERICENTER":278.5219,"MEAN_ANOMALY":43.4848,"EPHEMERIS_TYPE":0,"CLASSIFICATION_TYPE":"U","NORAD_CAT_ID":56297,"ELEMENT_SET_NO":999,"REV_AT_EPOCH":582,"BSTAR":0.11953788,"MEAN_MOTION_DOT":0.02053428,"MEAN_MOTION_DDOT":0},{"OBJECT_NAME":"STARLINK-30109","OBJECT_ID":"2023-056N","EPOCH":"2026-02-27T06:00:02.000160","MEAN_MOTION":15.12981103,"ECCENTRICITY":0.00015852,"INCLINATION":42.9994,"RA_OF_ASC_NODE":266.7895,"ARG_OF_PERICENTER":271.6468,"MEAN_ANOMALY":143.3282,"EPHEMERIS_TYPE":0,"CLASSIFICATION_TYPE":"U","NORAD_CAT_ID":56298,"ELEMENT_SET_NO":999,"REV_AT_EPOCH":582,"BSTAR":0.00037782629,"MEAN_MOTION_DOT":6.566e-5,"MEAN_MOTION_DDOT":0},{"OBJECT_NAME":"STARLINK-30108","OBJECT_ID":"2023-056P","EPOCH":"2026-02-26T23:26:56.982624","MEAN_MOTION":15.11944519,"ECCENTRICITY":0.00013298,"INCLINATION":42.9991,"RA_OF_ASC_NODE":255.3279,"ARG_OF_PERICENTER":281.7388,"MEAN_ANOMALY":78.3309,"EPHEMERIS_TYPE":0,"CLASSIFICATION_TYPE":"U","NORAD_CAT_ID":56299,"ELEMENT_SET_NO":999,"REV_AT_EPOCH":15862,"BSTAR":0.00050741016,"MEAN_MOTION_DOT":8.64e-5,"MEAN_MOTION_DDOT":0},{"OBJECT_NAME":"STARLINK-30104","OBJECT_ID":"2023-056Q","EPOCH":"2026-02-27T06:52:05.138976","MEAN_MOTION":15.0356153,"ECCENTRICITY":0.0004778,"INCLINATION":43.0038,"RA_OF_ASC_NODE":266.4154,"ARG_OF_PERICENTER":253.9828,"MEAN_ANOMALY":106.0488,"EPHEMERIS_TYPE":0,"CLASSIFICATION_TYPE":"U","NORAD_CAT_ID":56300,"ELEMENT_SET_NO":999,"REV_AT_EPOCH":15852,"BSTAR":0.0086406634,"MEAN_MOTION_DOT":0.00121862,"MEAN_MOTION_DDOT":0},{"OBJECT_NAME":"STARLINK-30101","OBJECT_ID":"2023-056R","EPOCH":"2026-02-27T06:00:02.000160","MEAN_MOTION":15.12602261,"ECCENTRICITY":0.00018215,"INCLINATION":42.9991,"RA_OF_ASC_NODE":266.7558,"ARG_OF_PERICENTER":312.0512,"MEAN_ANOMALY":142.4806,"EPHEMERIS_TYPE":0,"CLASSIFICATION_TYPE":"U","NORAD_CAT_ID":56301,"ELEMENT_SET_NO":999,"REV_AT_EPOCH":562,"BSTAR":0.0021577102,"MEAN_MOTION_DOT":0.00038323,"MEAN_MOTION_DDOT":0},{"OBJECT_NAME":"STARLINK-30111","OBJECT_ID":"2023-056S","EPOCH":"2026-02-27T06:00:02.000160","MEAN_MOTION":15.12203153,"ECCENTRICITY":0.00010776,"INCLINATION":43,"RA_OF_ASC_NODE":266.6173,"ARG_OF_PERICENTER":321.607,"MEAN_ANOMALY":165.6834,"EPHEMERIS_TYPE":0,"CLASSIFICATION_TYPE":"U","NORAD_CAT_ID":56302,"ELEMENT_SET_NO":999,"REV_AT_EPOCH":573,"BSTAR":0.0027116601,"MEAN_MOTION_DOT":0.00047746,"MEAN_MOTION_DDOT":0},{"OBJECT_NAME":"STARLINK-30099","OBJECT_ID":"2023-056U","EPOCH":"2026-02-27T06:00:02.000160","MEAN_MOTION":15.10796322,"ECCENTRICITY":0.00011288,"INCLINATION":42.9997,"RA_OF_ASC_NODE":266.6154,"ARG_OF_PERICENTER":321.4434,"MEAN_ANOMALY":161.7936,"EPHEMERIS_TYPE":0,"CLASSIFICATION_TYPE":"U","NORAD_CAT_ID":56304,"ELEMENT_SET_NO":999,"REV_AT_EPOCH":568,"BSTAR":0.0025383919,"MEAN_MOTION_DOT":0.00042933,"MEAN_MOTION_DDOT":0},{"OBJECT_NAME":"STARLINK-30094","OBJECT_ID":"2023-056V","EPOCH":"2026-02-27T06:00:02.000160","MEAN_MOTION":15.11346976,"ECCENTRICITY":0.00014672,"INCLINATION":42.9999,"RA_OF_ASC_NODE":266.5687,"ARG_OF_PERICENTER":340.5475,"MEAN_ANOMALY":156.1828,"EPHEMERIS_TYPE":0,"CLASSIFICATION_TYPE":"U","NORAD_CAT_ID":56305,"ELEMENT_SET_NO":999,"REV_AT_EPOCH":573,"BSTAR":0.0023800181,"MEAN_MOTION_DOT":0.0004085,"MEAN_MOTION_DDOT":0},{"OBJECT_NAME":"STARLINK-30112","OBJECT_ID":"2023-056W","EPOCH":"2026-02-27T06:00:02.000160","MEAN_MOTION":15.12135663,"ECCENTRICITY":0.00011593,"INCLINATION":42.9996,"RA_OF_ASC_NODE":266.6506,"ARG_OF_PERICENTER":306.4662,"MEAN_ANOMALY":165.888,"EPHEMERIS_TYPE":0,"CLASSIFICATION_TYPE":"U","NORAD_CAT_ID":56306,"ELEMENT_SET_NO":999,"REV_AT_EPOCH":573,"BSTAR":0.0025245247,"MEAN_MOTION_DOT":0.0004433,"MEAN_MOTION_DDOT":0},{"OBJECT_NAME":"STARLINK-6038","OBJECT_ID":"2023-058A","EPOCH":"2026-02-26T23:12:19.325376","MEAN_MOTION":15.05651856,"ECCENTRICITY":0.0001847,"INCLINATION":97.6043,"RA_OF_ASC_NODE":60.6538,"ARG_OF_PERICENTER":76.3694,"MEAN_ANOMALY":283.7739,"EPHEMERIS_TYPE":0,"CLASSIFICATION_TYPE":"U","NORAD_CAT_ID":56317,"ELEMENT_SET_NO":999,"REV_AT_EPOCH":15623,"BSTAR":4.7191e-5,"MEAN_MOTION_DOT":6.2e-6,"MEAN_MOTION_DDOT":0}]
