STARLINK-30113          
1 56291U 23056F   26058.25002315  .00042114  00000+0  25529-2 0  9994
2 56291  42.9999 266.6768 0001837 327.0503 163.4676 15.09898345  5737
STARLINK-30098          
1 56292U 23056G   26057.62594463  .00004315  00000+0  33424-3 0  9990
2 56292  43.0024 270.0518 0001956 266.9339  93.1280 15.02544569158368
STARLINK-30090          
1 56293U 23056H   26058.25002315  .01044961  00000+0  59874-1 0  9998
2 56293  43.0000 267.3300 0001321 275.5303 297.9683 15.09167734  5638
STARLINK-30049          
1 56294U 23056J   26058.25002315 -.00000192  00000+0  17405-5 0  9995
2 56294  42.9996 267.0537 0001875 259.8479  43.4019 15.11558335  5735
STARLINK-30083          
1 56295U 23056K   26058.25002315  .00045546  00000+0  30108-2 0  9999
2 56295  42.9998 241.1150 0000827 217.5614  22.1992 15.06690283  5737
STARLINK-30089          
1 56296U 23056L   26058.25002315  .01574983  00000+0  74084-1 0  9993
2 56296  42.9996 227.7592 0001694 282.7518  89.7294 15.15488965  5620
STARLINK-30086          
1 56297U 23056M   26058.25002315  .02053428  00000+0  11954+0 0  9996
2 56297  43.0002 267.0033 0001704 278.5219  43.4848 15.07988341  5829
STARLINK-30109          
1 56298U 23056N   26058.25002315  .00006566  00000+0  37783-3 0  9998
2 56298  42.9994 266.7895 0001585 271.6468 143.3282 15.12981103  5824
STARLINK-30108          
1 56299U 23056P   26057.97704841  .00008640  00000+0  50741-3 0  9994
2 56299  42.9991 255.3279 0001329 281.7388  78.3309 15.11944519158624
STARLINK-30104          
1 56300U 23056Q   26058.28617059  .00121862  00000+0  86407-2 0  9995
2 56300  43.0038 266.4154 0004778 253.9828 106.0488 15.03561530158522
STARLINK-30101          
1 56301U 23056R   26058.25002315  .00038323  00000+0  21577-2 0  9992
2 56301  42.9991 266.7558 0001821 312.0512 142.4806 15.12602261  5620
STARLINK-30111          
1 56302U 23056S   26058.25002315  .00047746  00000+0  27117-2 0  9998
2 56302  43.0000 266.6173 0001077 321.6070 165.6834 15.12203153  5731
STARLINK-30099          
1 56304U 23056U   26058.25002315  .00042933  00000+0  25384-2 0  9997
2 56304  42.9997 266.6154 0001128 321.4434 161.7936 15.10796322  5681
STARLINK-30094          
1 56305U 23056V   26058.25002315  .00040850  00000+0  23800-2 0  9995
2 56305  42.9999 266.5687 0001467 340.5475 156.1828 15.11346976  5738
STARLINK-30112          
1 56306U 23056W   26058.25002315  .00044330  00000+0  25245-2 0  9998
2 56306  42.9996 266.6506 0001159 306.4662 165.8880 15.12135663  5739
STARLINK-6038           
1 56317U 23058A   26057.96689034  .00000620  00000+0  47191-4 0  9998
2 56317  97.6043  60.6538 0001847  76.3694 283.7739 15.05651856156234
